{
    "CCSDS_OMM_VERS": "3.0",
    "COMMENT": "GENERATED VIA SPACE-TRACK.ORG API",
    "CREATION_DATE": "2025-11-23T21:08:43",
    "ORIGINATOR": "18 SPCS",
    "OBJECT_NAME": "GALILEO 25 (2C1)",
    "OBJECT_ID": "2018-060A",
    "CENTER_NAME": "EARTH",
    "REF_FRAME": "TEME",
    "TIME_SYSTEM": "UTC",
    "MEAN_ELEMENT_THEORY": "SGP4",
    "EPOCH": "2025-11-22T00:00:29.397600",
    "MEAN_MOTION": "1.70476090",
    "ECCENTRICITY": "0.00064620",
    "INCLINATION": "57.2323",
    "RA_OF_ASC_NODE": "347.3784",
    "ARG_OF_PERICENTER": "277.3952",
    "MEAN_ANOMALY": "82.5792",
    "EPHEMERIS_TYPE": "0",
    "CLASSIFICATION_TYPE": "U",
    "NORAD_CAT_ID": "43564",
    "ELEMENT_SET_NO": "999",
    "REV_AT_EPOCH": "4563",
    "BSTAR": "0.00000000000000",
    "MEAN_MOTION_DOT": "-0.00000069",
    "MEAN_MOTION_DDOT": "0.0000000000000",
    "SEMIMAJOR_AXIS": "29600.078",
    "PERIOD": "844.693",
    "APOAPSIS": "23241.071",
    "PERIAPSIS": "23202.816",
    "OBJECT_TYPE": "PAYLOAD",
    "RCS_SIZE": "LARGE",
    "COUNTRY_CODE": "ESA",
    "LAUNCH_DATE": "2018-07-25",
    "SITE": "FRGUI",
    "DECAY_DATE": null,
    "FILE": "4896238",
    "GP_ID": "303334184",
    "TLE_LINE0": "0 GALILEO 25 (2C1)",
    "TLE_LINE1": "1 43564U 18060A   25326.00034025 -.00000069  00000-0  00000-0 0  9995",
    "TLE_LINE2": "2 43564  57.2323 347.3784 0006462 277.3952  82.5792  1.70476090 45630"
}